{
  "norad_id": 58213,
  "name": "STARLINK-30813",
  "history": [
    {
      "epoch": "2026-03-28T11:13:07.958208Z",
      "apogee_km": 486.7267628671507,
      "perigee_km": 484.35330334910213,
      "latitude_deg": -5.163677595191004e-05,
      "longitude_deg": 93.81050706786705,
      "height_km": 485.1706129939336,
      "semi_major_axis_km": 6863.677033108126,
      "eccentricity": 0.0001729,
      "inclination_deg": 43.0059,
      "raan_deg": 87.9812,
      "arg_perigee_deg": 277.1224,
      "mean_anomaly_deg": 82.943,
      "mean_motion_rev_day": 15.26748501
    },
    {
      "epoch": "2026-03-30T00:54:07.828704Z",
      "apogee_km": 486.67393461270876,
      "perigee_km": 484.4253908619967,
      "latitude_deg": 2.294104237450591e-05,
      "longitude_deg": -121.841671501812,
      "height_km": 485.3274533703765,
      "semi_major_axis_km": 6863.686662737353,
      "eccentricity": 0.0001638,
      "inclination_deg": 43.0051,
      "raan_deg": 79.126,
      "arg_perigee_deg": 269.9874,
      "mean_anomaly_deg": 90.079,
      "mean_motion_rev_day": 15.26745288
    },
    {
      "epoch": "2026-03-30T05:36:45.518688Z",
      "apogee_km": 486.7449218996944,
      "perigee_km": 484.3098310522082,
      "latitude_deg": -4.983905846366245e-05,
      "longitude_deg": 166.20325741667747,
      "height_km": 485.07445862568585,
      "semi_major_axis_km": 6863.664376475951,
      "eccentricity": 0.00017739,
      "inclination_deg": 43.0049,
      "raan_deg": 78.0215,
      "arg_perigee_deg": 280.9157,
      "mean_anomaly_deg": 79.1494,
      "mean_motion_rev_day": 15.26752724
    },
    {
      "epoch": "2026-03-30T10:19:22.840608Z",
      "apogee_km": 486.7099203403086,
      "perigee_km": 484.3983664370371,
      "latitude_deg": 2.2301116550501335e-05,
      "longitude_deg": 94.24507865569416,
      "height_km": 485.1544715813102,
      "semi_major_axis_km": 6863.691143388673,
      "eccentricity": 0.00016839,
      "inclination_deg": 43.0062,
      "raan_deg": 76.9122,
      "arg_perigee_deg": 278.8284,
      "mean_anomaly_deg": 81.2377,
      "mean_motion_rev_day": 15.26743793
    },
    {
      "epoch": "2026-03-31T06:44:05.276832Z",
      "apogee_km": 486.71428492485666,
      "perigee_km": 484.50827622747966,
      "latitude_deg": -1.2351271332519174e-06,
      "longitude_deg": 142.4337546740792,
      "height_km": 485.2855933261457,
      "semi_major_axis_km": 6863.748280576168,
      "eccentricity": 0.0001607,
      "inclination_deg": 43.0062,
      "raan_deg": 72.116,
      "arg_perigee_deg": 275.376,
      "mean_anomaly_deg": 84.6908,
      "mean_motion_rev_day": 15.26724729
    },
    {
      "epoch": "2026-04-01T07:51:26.997120Z",
      "apogee_km": 486.71319460339873,
      "perigee_km": 484.56895033355977,
      "latitude_deg": 6.345150545032317e-05,
      "longitude_deg": 118.65797122571546,
      "height_km": 485.087592601096,
      "semi_major_axis_km": 6863.778072468479,
      "eccentricity": 0.0001562,
      "inclination_deg": 43.0067,
      "raan_deg": 66.2124,
      "arg_perigee_deg": 287.9899,
      "mean_anomaly_deg": 72.0783,
      "mean_motion_rev_day": 15.26714789
    },
    {
      "epoch": "2026-04-02T08:58:44.960736Z",
      "apogee_km": 486.5032682327528,
      "perigee_km": 484.6219281728863,
      "latitude_deg": -2.7658219414876302e-06,
      "longitude_deg": 94.89534354087712,
      "height_km": 485.4283782763173,
      "semi_major_axis_km": 6863.699598202819,
      "eccentricity": 0.00013705,
      "inclination_deg": 43.0058,
      "raan_deg": 60.3064,
      "arg_perigee_deg": 264.6082,
      "mean_anomaly_deg": 95.4613,
      "mean_motion_rev_day": 15.26740972
    },
    {
      "epoch": "2026-04-02T21:32:24.075168Z",
      "apogee_km": 486.50339351339335,
      "perigee_km": 484.6486809764692,
      "latitude_deg": 8.64158417179054e-06,
      "longitude_deg": -96.98497713135164,
      "height_km": 485.4728667478943,
      "semi_major_axis_km": 6863.713037244931,
      "eccentricity": 0.00013511,
      "inclination_deg": 43.0066,
      "raan_deg": 57.3549,
      "arg_perigee_deg": 262.6039,
      "mean_anomaly_deg": 97.4659,
      "mean_motion_rev_day": 15.26736488
    },
    {
      "epoch": "2026-04-03T05:23:27.087648Z",
      "apogee_km": 486.8573687029502,
      "perigee_km": 484.32465306693393,
      "latitude_deg": 2.992646883593892e-05,
      "longitude_deg": 143.08227120432747,
      "height_km": 485.91240672205066,
      "semi_major_axis_km": 6863.728010884942,
      "eccentricity": 0.0001845,
      "inclination_deg": 43.0087,
      "raan_deg": 55.5071,
      "arg_perigee_deg": 244.584,
      "mean_anomaly_deg": 115.4821,
      "mean_motion_rev_day": 15.26731492
    },
    {
      "epoch": "2026-04-04T20:38:37.201056Z",
      "apogee_km": 487.2099535844036,
      "perigee_km": 483.6422734779899,
      "latitude_deg": 1.0690813221657397e-05,
      "longitude_deg": -96.54634497356356,
      "height_km": 485.72882975478524,
      "semi_major_axis_km": 6863.563113531196,
      "eccentricity": 0.0002599,
      "inclination_deg": 43.007,
      "raan_deg": 46.2827,
      "arg_perigee_deg": 252.9036,
      "mean_anomaly_deg": 107.1531,
      "mean_motion_rev_day": 15.26786512
    }
  ]
}